[{"CCSDS_OMM_VERS":"3.0","COMMENT":"GENERATED VIA SPACE-TRACK.ORG API","CREATION_DATE":"2026-06-18T21:46:39","ORIGINATOR":"18 SPCS","OBJECT_NAME":"BEIDOU 3 IGSO-1","OBJECT_ID":"2019-023A","CENTER_NAME":"EARTH","REF_FRAME":"TEME","TIME_SYSTEM":"UTC","MEAN_ELEMENT_THEORY":"SGP4","EPOCH":"2026-06-18T14:37:15.269664","MEAN_MOTION":"1.00291017","ECCENTRICITY":"0.00255440","INCLINATION":"58.6970","RA_OF_ASC_NODE":"37.6341","ARG_OF_PERICENTER":"225.7171","MEAN_ANOMALY":"340.8879","EPHEMERIS_TYPE":"0","CLASSIFICATION_TYPE":"U","NORAD_CAT_ID":"44204","ELEMENT_SET_NO":"999","REV_AT_EPOCH":"722","BSTAR":"0.00000000000000","MEAN_MOTION_DOT":"-0.00000224","MEAN_MOTION_DDOT":"0.0000000000000","SEMIMAJOR_AXIS":"42159.341","PERIOD":"1435.822","APOAPSIS":"35888.898","PERIAPSIS":"35673.515","OBJECT_TYPE":"PAYLOAD","RCS_SIZE":"LARGE","COUNTRY_CODE":"PRC","LAUNCH_DATE":"2019-04-20","SITE":"XSC","DECAY_DATE":null,"FILE":"5254022","GP_ID":"330456975","TLE_LINE0":"0 BEIDOU 3 IGSO-1","TLE_LINE1":"1 44204U 19023A   26169.60920451 -.00000224  00000-0  00000+0 0  9998","TLE_LINE2":"2 44204  58.6970  37.6341 0025544 225.7171 340.8879  1.00291017  7221"},{"CCSDS_OMM_VERS":"3.0","COMMENT":"GENERATED VIA SPACE-TRACK.ORG API","CREATION_DATE":"2026-06-19T17:59:21","ORIGINATOR":"18 SPCS","OBJECT_NAME":"BEIDOU 3 IGSO-1","OBJECT_ID":"2019-023A","CENTER_NAME":"EARTH","REF_FRAME":"TEME","TIME_SYSTEM":"UTC","MEAN_ELEMENT_THEORY":"SGP4","EPOCH":"2026-06-19T15:08:57.350112","MEAN_MOTION":"1.00290861","ECCENTRICITY":"0.00255776","INCLINATION":"58.6985","RA_OF_ASC_NODE":"37.6233","ARG_OF_PERICENTER":"225.7008","MEAN_ANOMALY":"349.9014","EPHEMERIS_TYPE":"0","CLASSIFICATION_TYPE":"U","NORAD_CAT_ID":"44204","ELEMENT_SET_NO":"999","REV_AT_EPOCH":"723","BSTAR":"0.00000000000000","MEAN_MOTION_DOT":"-0.00000227","MEAN_MOTION_DDOT":"0.0000000000000","SEMIMAJOR_AXIS":"42159.385","PERIOD":"1435.824","APOAPSIS":"35889.084","PERIAPSIS":"35673.416","OBJECT_TYPE":"PAYLOAD","RCS_SIZE":"LARGE","COUNTRY_CODE":"PRC","LAUNCH_DATE":"2019-04-20","SITE":"XSC","DECAY_DATE":null,"FILE":"5255921","GP_ID":"330723548","TLE_LINE0":"0 BEIDOU 3 IGSO-1","TLE_LINE1":"1 44204U 19023A   26170.63121933 -.00000227  00000-0  00000-0 0  9995","TLE_LINE2":"2 44204  58.6985  37.6233 0025578 225.7008 349.9014  1.00290861  7231"},{"CCSDS_OMM_VERS":"3.0","COMMENT":"GENERATED VIA SPACE-TRACK.ORG API","CREATION_DATE":"2026-06-20T10:42:50","ORIGINATOR":"18 SPCS","OBJECT_NAME":"BEIDOU 3 IGSO-1","OBJECT_ID":"2019-023A","CENTER_NAME":"EARTH","REF_FRAME":"TEME","TIME_SYSTEM":"UTC","MEAN_ELEMENT_THEORY":"SGP4","EPOCH":"2026-06-20T00:32:38.719968","MEAN_MOTION":"1.00290789","ECCENTRICITY":"0.00255895","INCLINATION":"58.6991","RA_OF_ASC_NODE":"37.6192","ARG_OF_PERICENTER":"225.6061","MEAN_ANOMALY":"131.3285","EPHEMERIS_TYPE":"0","CLASSIFICATION_TYPE":"U","NORAD_CAT_ID":"44204","ELEMENT_SET_NO":"999","REV_AT_EPOCH":"723","BSTAR":"0.00000000000000","MEAN_MOTION_DOT":"-0.00000228","MEAN_MOTION_DDOT":"0.0000000000000","SEMIMAJOR_AXIS":"42159.405","PERIOD":"1435.825","APOAPSIS":"35889.154","PERIAPSIS":"35673.387","OBJECT_TYPE":"PAYLOAD","RCS_SIZE":"LARGE","COUNTRY_CODE":"PRC","LAUNCH_DATE":"2019-04-20","SITE":"XSC","DECAY_DATE":null,"FILE":"5256487","GP_ID":"330836400","TLE_LINE0":"0 BEIDOU 3 IGSO-1","TLE_LINE1":"1 44204U 19023A   26171.02267037 -.00000228  00000-0  00000-0 0  9996","TLE_LINE2":"2 44204  58.6991  37.6192 0025589 225.6061 131.3285  1.00290789  7234"},{"CCSDS_OMM_VERS":"3.0","COMMENT":"GENERATED VIA SPACE-TRACK.ORG API","CREATION_DATE":"2026-06-23T03:40:42","ORIGINATOR":"18 SPCS","OBJECT_NAME":"BEIDOU 3 IGSO-1","OBJECT_ID":"2019-023A","CENTER_NAME":"EARTH","REF_FRAME":"TEME","TIME_SYSTEM":"UTC","MEAN_ELEMENT_THEORY":"SGP4","EPOCH":"2026-06-20T13:09:30.279168","MEAN_MOTION":"1.00290704","ECCENTRICITY":"0.00256163","INCLINATION":"58.6998","RA_OF_ASC_NODE":"37.6136","ARG_OF_PERICENTER":"225.5297","MEAN_ANOMALY":"321.1703","EPHEMERIS_TYPE":"0","CLASSIFICATION_TYPE":"U","NORAD_CAT_ID":"44204","ELEMENT_SET_NO":"999","REV_AT_EPOCH":"724","BSTAR":"0.00000000000000","MEAN_MOTION_DOT":"-0.00000229","MEAN_MOTION_DDOT":"0.0000000000000","SEMIMAJOR_AXIS":"42159.429","PERIOD":"1435.826","APOAPSIS":"35889.291","PERIAPSIS":"35673.297","OBJECT_TYPE":"PAYLOAD","RCS_SIZE":"LARGE","COUNTRY_CODE":"PRC","LAUNCH_DATE":"2019-04-20","SITE":"XSC","DECAY_DATE":null,"FILE":"5257616","GP_ID":"330962619","TLE_LINE0":"0 BEIDOU 3 IGSO-1","TLE_LINE1":"1 44204U 19023A   26171.54826712 -.00000229  00000-0  00000-0 0  9995","TLE_LINE2":"2 44204  58.6998  37.6136 0025616 225.5297 321.1703  1.00290704  7242"},{"CCSDS_OMM_VERS":"3.0","COMMENT":"GENERATED VIA SPACE-TRACK.ORG API","CREATION_DATE":"2026-06-20T15:56:36","ORIGINATOR":"18 SPCS","OBJECT_NAME":"BEIDOU 3 IGSO-1","OBJECT_ID":"2019-023A","CENTER_NAME":"EARTH","REF_FRAME":"TEME","TIME_SYSTEM":"UTC","MEAN_ELEMENT_THEORY":"SGP4","EPOCH":"2026-06-20T13:09:30.279168","MEAN_MOTION":"1.00290704","ECCENTRICITY":"0.00256160","INCLINATION":"58.6998","RA_OF_ASC_NODE":"37.6136","ARG_OF_PERICENTER":"225.5297","MEAN_ANOMALY":"321.1703","EPHEMERIS_TYPE":"0","CLASSIFICATION_TYPE":"U","NORAD_CAT_ID":"44204","ELEMENT_SET_NO":"999","REV_AT_EPOCH":"724","BSTAR":"0.00000000000000","MEAN_MOTION_DOT":"-0.00000229","MEAN_MOTION_DDOT":"0.0000000000000","SEMIMAJOR_AXIS":"42159.429","PERIOD":"1435.826","APOAPSIS":"35889.290","PERIAPSIS":"35673.299","OBJECT_TYPE":"PAYLOAD","RCS_SIZE":"LARGE","COUNTRY_CODE":"PRC","LAUNCH_DATE":"2019-04-20","SITE":"XSC","DECAY_DATE":null,"FILE":"5256741","GP_ID":"330878803","TLE_LINE0":"0 BEIDOU 3 IGSO-1","TLE_LINE1":"1 44204U 19023A   26171.54826712 -.00000229  00000-0  00000+0 0  9994","TLE_LINE2":"2 44204  58.6998  37.6136 0025616 225.5297 321.1703  1.00290704  7242"},{"CCSDS_OMM_VERS":"3.0","COMMENT":"GENERATED VIA SPACE-TRACK.ORG API","CREATION_DATE":"2026-06-24T02:28:56","ORIGINATOR":"18 SPCS","OBJECT_NAME":"BEIDOU 3 IGSO-1","OBJECT_ID":"2019-023A","CENTER_NAME":"EARTH","REF_FRAME":"TEME","TIME_SYSTEM":"UTC","MEAN_ELEMENT_THEORY":"SGP4","EPOCH":"2026-06-22T22:46:36.425280","MEAN_MOTION":"1.00290263","ECCENTRICITY":"0.00256968","INCLINATION":"58.7032","RA_OF_ASC_NODE":"37.5887","ARG_OF_PERICENTER":"225.1834","MEAN_ANOMALY":"108.3057","EPHEMERIS_TYPE":"0","CLASSIFICATION_TYPE":"U","NORAD_CAT_ID":"44204","ELEMENT_SET_NO":"999","REV_AT_EPOCH":"726","BSTAR":"0.00000000000000","MEAN_MOTION_DOT":"-0.00000231","MEAN_MOTION_DDOT":"0.0000000000000","SEMIMAJOR_AXIS":"42159.553","PERIOD":"1435.832","APOAPSIS":"35889.754","PERIAPSIS":"35673.081","OBJECT_TYPE":"PAYLOAD","RCS_SIZE":"LARGE","COUNTRY_CODE":"PRC","LAUNCH_DATE":"2019-04-20","SITE":"XSC","DECAY_DATE":null,"FILE":"5257684","GP_ID":"331031811","TLE_LINE0":"0 BEIDOU 3 IGSO-1","TLE_LINE1":"1 44204U 19023A   26173.94903270 -.00000231  00000-0  00000-0 0  9999","TLE_LINE2":"2 44204  58.7032  37.5887 0025697 225.1834 108.3057  1.00290263  7265"}]